ONEWEB-0446             
1 51640U 22012U   25266.91208728 -.00000446  00000+0 -13149-2 0  9996
2 51640  87.8737  89.3872 0001756  94.9254 265.2074 13.10370293174453
ONEWEB-0448             
1 51641U 22012V   25266.76434534 -.00000652  00000+0 -19029-2 0  9998
2 51641  87.8736  89.4162 0001550  86.8862 273.2443 13.10370871174409
ONEWEB-0449             
1 51642U 22012W   25266.92204584 -.00000631  00000+0 -18442-2 0  9992
2 51642  87.8733  89.3553 0001939  76.1338 284.0005 13.10372552174436
ONEWEB-0451             
1 51643U 22012X   25266.90069100 -.00000003  00000+0 -40686-4 0  9994
2 51643  87.9070  58.7891 0001783  89.2423 270.8913 13.17649566178595
ONEWEB-0452             
1 51644U 22012Y   25266.89901026 -.00000018  00000+0 -78815-4 0  9996
2 51644  87.9061  58.8508 0001705  84.1292 276.0034 13.17648335178601
ONEWEB-0456             
1 51646U 22012AA  25266.93200277 -.00000387  00000+0 -11447-2 0  9998
2 51646  87.8752  89.3152 0001452  89.8063 270.3231 13.10375262174476
ONEWEB-0457             
1 51647U 22012AB  25266.90877100 -.00000290  00000+0 -86655-3 0  9998
2 51647  87.8735  89.3758 0002043  86.6129 273.5232 13.10370158174470
ONEWEB-0458             
1 51648U 22012AC  25266.93034798 -.00000469  00000+0 -13803-2 0  9992
2 51648  87.8739  89.3425 0001640  81.2188 278.9125 13.10374686174430
